ONEWEB-0199             
1 48234U 21031AA  25082.87251175  .00000153  00000+0  37818-3 0  9999
2 48234  87.9080  19.2351 0002045  80.8735 279.2626 13.14500429189100
ONEWEB-0203             
1 48235U 21031AB  25082.86299100  .00000097  00000+0  22709-3 0  9999
2 48235  87.9083  19.2393 0002213  73.0186 287.1186 13.14500207189115
ONEWEB-0197             
1 48236U 21031AC  25082.83843522 -.00000166  00000+0 -48198-3 0  9999
2 48236  87.9085  19.2549 0001833  89.2175 270.9165 13.14503486189024
ONEWEB-0194             
1 48237U 21031AD  25082.81701175  .00000098  00000+0  23057-3 0  9994
2 48237  87.9085  19.2546 0002102  77.2133 282.9231 13.14501150189194
ONEWEB-0193             
1 48238U 21031AE  25082.83288136 -.00000176  00000+0 -50881-3 0  9998
2 48238  87.9084  19.2593 0001896  75.0307 285.1033 13.14502650189140
ONEWEB-0191             
1 48239U 21031AF  25082.84396692 -.00000422  00000+0 -11722-2 0  9991
2 48239  87.9080  19.2322 0001890  74.9674 285.1664 13.14502323189008
ONEWEB-0195             
1 48240U 21031AG  25082.89709227  .00000208  00000+0  52644-3 0  9999
2 48240  87.9081  19.2199 0001631  66.7842 293.3459 13.14500911188993
